SWAS                    
1 25560U 98071A   26068.53487068  .00004636  00000+0  29986-3 0  9991
2 25560  69.8952 124.3662 0004099  14.3215 345.8065 15.08888192482231
STARLINK-3685           
1 52115U 22029AD  26068.26940975  .00001377  00000+0  10459-3 0  9992
2 52115  53.2174  81.0082 0001334  90.6968 269.4177 15.08831450220720
